[{"OBJECT_NAME":"STARLINK-35838","OBJECT_ID":"2025-280R","EPOCH":"2026-03-09T22:15:11.610144","MEAN_MOTION":14.98331397,"ECCENTRICITY":0.00026675,"INCLINATION":70.0018,"RA_OF_ASC_NODE":333.7677,"ARG_OF_PERICENTER":270.2189,"MEAN_ANOMALY":89.8665,"EPHEMERIS_TYPE":0,"CLASSIFICATION_TYPE":"U","NORAD_CAT_ID":66836,"ELEMENT_SET_NO":999,"REV_AT_EPOCH":1611,"BSTAR":0.00041565979,"MEAN_MOTION_DOT":4.87e-5,"MEAN_MOTION_DDOT":0},{"OBJECT_NAME":"IRIDIUM 33 DEB","OBJECT_ID":"1997-051CX","EPOCH":"2026-03-09T17:43:24.588192","MEAN_MOTION":14.98094004,"ECCENTRICITY":0.00015404,"INCLINATION":86.3865,"RA_OF_ASC_NODE":350.5598,"ARG_OF_PERICENTER":95.4765,"MEAN_ANOMALY":329.7207,"EPHEMERIS_TYPE":0,"CLASSIFICATION_TYPE":"U","NORAD_CAT_ID":34088,"ELEMENT_SET_NO":999,"REV_AT_EPOCH":90041,"BSTAR":0.0032183732,"MEAN_MOTION_DOT":0.00038264,"MEAN_MOTION_DDOT":0}]
